start=new Date('2023-01-06T00:00:00.000Z').valueOf();
sats=[{"PERIAPSIS":"537.740","PERIOD":"95.438","ECCENTRICITY":"0.00029160","APOAPSIS":"541.774","MEAN_MOTION":"15.08836223","COUNTRY_CODE":"US","EPHEMERIS_TYPE":"0","OBJECT_TYPE":"PAYLOAD","GP_ID":"222263524","BSTAR":"0.00001723300000","ELEMENT_SET_NO":"999","REF_FRAME":"TEME","CENTER_NAME":"EARTH","RCS_SIZE":"LARGE","CLASSIFICATION_TYPE":"U","ARG_OF_PERICENTER":"26.3606","FILE":"3732939","TIME_SYSTEM":"UTC","OBJECT_ID":"2021-125AQ","REV_AT_EPOCH":"6178","TLE_LINE2":"2 50194  53.2152  42.9616 0002916  26.3606 333.7534 15.08836223 61786","INCLINATION":"53.2152","SITE":"AFWTR","MEAN_MOTION_DDOT":"0.0000000000000","TLE_LINE1":"1 50194U 21125AQ  23005.49502979 -.00000014  00000-0  17233-4 0  9991","NORAD_CAT_ID":"50194","MEAN_MOTION_DOT":"-0.00000014","OBJECT_NAME":"STARLINK-3269","LAUNCH_DATE":"2021-12-18","SEMIMAJOR_AXIS":"6917.892","RA_OF_ASC_NODE":"42.9616","MEAN_ANOMALY":"333.7534","DECAY_DATE":null,"EPOCH":"2023-01-05T11:52:50.573856","MEAN_ELEMENT_THEORY":"SGP4"},{"ELEMENT_SET_NO":"999","BSTAR":"0.00012589000000","REF_FRAME":"TEME","CENTER_NAME":"EARTH","GP_ID":"222264276","RCS_SIZE":"LARGE","CLASSIFICATION_TYPE":"U","ECCENTRICITY":"0.00031470","PERIAPSIS":"537.584","PERIOD":"95.438","OBJECT_TYPE":"PAYLOAD","EPHEMERIS_TYPE":"0","APOAPSIS":"541.938","MEAN_MOTION":"15.08834760","COUNTRY_CODE":"US","NORAD_CAT_ID":"50195","MEAN_MOTION_DOT":"0.00001715","SITE":"AFWTR","MEAN_MOTION_DDOT":"0.0000000000000","TLE_LINE1":"1 50195U 21125AR  23005.50607064  .00001715  00000-0  12589-3 0  9991","DECAY_DATE":null,"EPOCH":"2023-01-05T12:08:44.503296","MEAN_ELEMENT_THEORY":"SGP4","OBJECT_NAME":"STARLINK-3266","LAUNCH_DATE":"2021-12-18","SEMIMAJOR_AXIS":"6917.896","RA_OF_ASC_NODE":"42.9065","MEAN_ANOMALY":"337.9691","FILE":"3732939","ARG_OF_PERICENTER":"22.1437","TIME_SYSTEM":"UTC","OBJECT_ID":"2021-125AR","REV_AT_EPOCH":"6173","TLE_LINE2":"2 50195  53.2156  42.9065 0003147  22.1437 337.9691 15.08834760 61731","INCLINATION":"53.2156"},{"CLASSIFICATION_TYPE":"U","RCS_SIZE":"LARGE","REF_FRAME":"TEME","CENTER_NAME":"EARTH","BSTAR":"0.00058561000000","ELEMENT_SET_NO":"999","GP_ID":"222264523","EPHEMERIS_TYPE":"0","OBJECT_TYPE":"PAYLOAD","COUNTRY_CODE":"US","APOAPSIS":"541.545","MEAN_MOTION":"15.08868045","ECCENTRICITY":"0.00027260","PERIAPSIS":"537.774","PERIOD":"95.436","DECAY_DATE":null,"EPOCH":"2023-01-05T08:31:26.668992","MEAN_ELEMENT_THEORY":"SGP4","MEAN_ANOMALY":"323.9590","OBJECT_NAME":"STARLINK-3263","SEMIMAJOR_AXIS":"6917.795","LAUNCH_DATE":"2021-12-18","RA_OF_ASC_NODE":"43.5789","MEAN_MOTION_DOT":"0.00009051","NORAD_CAT_ID":"50196","MEAN_MOTION_DDOT":"0.0000000000000","TLE_LINE1":"1 50196U 21125AS  23005.35516978  .00009051  00000-0  58561-3 0  9999","SITE":"AFWTR","TLE_LINE2":"2 50196  53.2159  43.5789 0002726  36.1586 323.9590 15.08868045 61711","INCLINATION":"53.2159","OBJECT_ID":"2021-125AS","REV_AT_EPOCH":"6171","ARG_OF_PERICENTER":"36.1586","FILE":"3732939","TIME_SYSTEM":"UTC"},{"DECAY_DATE":null,"EPOCH":"2023-01-05T08:36:45.291456","MEAN_ELEMENT_THEORY":"SGP4","MEAN_ANOMALY":"331.0364","OBJECT_NAME":"STARLINK-3267","LAUNCH_DATE":"2021-12-18","SEMIMAJOR_AXIS":"6917.843","RA_OF_ASC_NODE":"43.5736","MEAN_MOTION_DOT":"0.00005099","NORAD_CAT_ID":"50197","MEAN_MOTION_DDOT":"0.0000000000000","TLE_LINE1":"1 50197U 21125AT  23005.35885754  .00005099  00000-0  33815-3 0  9994","SITE":"AFWTR","TLE_LINE2":"2 50197  53.2175  43.5736 0002925  29.0791 331.0364 15.08852277 61766","INCLINATION":"53.2175","OBJECT_ID":"2021-125AT","REV_AT_EPOCH":"6176","ARG_OF_PERICENTER":"29.0791","FILE":"3732939","TIME_SYSTEM":"UTC","CLASSIFICATION_TYPE":"U","RCS_SIZE":"LARGE","REF_FRAME":"TEME","CENTER_NAME":"EARTH","BSTAR":"0.00033815000000","ELEMENT_SET_NO":"999","GP_ID":"222262775","OBJECT_TYPE":"PAYLOAD","EPHEMERIS_TYPE":"0","COUNTRY_CODE":"US","APOAPSIS":"541.731","MEAN_MOTION":"15.08852277","ECCENTRICITY":"0.00029250","PERIAPSIS":"537.684","PERIOD":"95.437"},{"ELEMENT_SET_NO":"999","BSTAR":"0.00072463000000","REF_FRAME":"TEME","CENTER_NAME":"EARTH","GP_ID":"222263025","RCS_SIZE":"LARGE","CLASSIFICATION_TYPE":"U","ECCENTRICITY":"0.00026870","PERIAPSIS":"537.805","PERIOD":"95.436","OBJECT_TYPE":"PAYLOAD","EPHEMERIS_TYPE":"0","APOAPSIS":"541.523","MEAN_MOTION":"15.08866531","COUNTRY_CODE":"US","NORAD_CAT_ID":"50198","MEAN_MOTION_DOT":"0.00011272","SITE":"AFWTR","MEAN_MOTION_DDOT":"0.0000000000000","TLE_LINE1":"1 50198U 21125AU  23005.07917391  .00011272  00000-0  72463-3 0  9999","DECAY_DATE":null,"EPOCH":"2023-01-05T01:54:00.625824","MEAN_ELEMENT_THEORY":"SGP4","OBJECT_NAME":"STARLINK-3264","SEMIMAJOR_AXIS":"6917.799","LAUNCH_DATE":"2021-12-18","RA_OF_ASC_NODE":"44.8195","MEAN_ANOMALY":"330.2876","FILE":"3732939","ARG_OF_PERICENTER":"29.8269","TIME_SYSTEM":"UTC","OBJECT_ID":"2021-125AU","REV_AT_EPOCH":"6167","TLE_LINE2":"2 50198  53.2162  44.8195 0002687  29.8269 330.2876 15.08866531 61676","INCLINATION":"53.2162"},{"FILE":"3732963","ARG_OF_PERICENTER":"27.0872","TIME_SYSTEM":"UTC","OBJECT_ID":"2021-125AV","REV_AT_EPOCH":"6177","TLE_LINE2":"2 50199  53.2178  41.6296 0002789  27.0872 333.0265 15.08861543 61776","INCLINATION":"53.2178","NORAD_CAT_ID":"50199","MEAN_MOTION_DOT":"0.00002499","SITE":"AFWTR","MEAN_MOTION_DDOT":"0.0000000000000","TLE_LINE1":"1 50199U 21125AV  23005.78940660  .00002499  00000-0  17497-3 0  9990","DECAY_DATE":null,"EPOCH":"2023-01-05T18:56:44.730240","MEAN_ELEMENT_THEORY":"SGP4","OBJECT_NAME":"STARLINK-3270","LAUNCH_DATE":"2021-12-18","RA_OF_ASC_NODE":"41.6296","SEMIMAJOR_AXIS":"6917.815","MEAN_ANOMALY":"333.0265","ECCENTRICITY":"0.00027890","PERIAPSIS":"537.750","PERIOD":"95.436","EPHEMERIS_TYPE":"0","OBJECT_TYPE":"PAYLOAD","APOAPSIS":"541.609","MEAN_MOTION":"15.08861543","COUNTRY_CODE":"US","ELEMENT_SET_NO":"999","BSTAR":"0.00017497000000","REF_FRAME":"TEME","CENTER_NAME":"EARTH","GP_ID":"222289728","RCS_SIZE":"LARGE","CLASSIFICATION_TYPE":"U"},{"REV_AT_EPOCH":"6176","OBJECT_ID":"2021-125AW","TIME_SYSTEM":"UTC","ARG_OF_PERICENTER":"28.4083","FILE":"3732963","INCLINATION":"53.2176","TLE_LINE2":"2 50200  53.2176  42.4116 0002750  28.4083 331.7059 15.08861241 61764","TLE_LINE1":"1 50200U 21125AW  23005.61644882  .00004953  00000-0  32892-3 0  9995","MEAN_MOTION_DDOT":"0.0000000000000","SITE":"AFWTR","MEAN_MOTION_DOT":"0.00004953","NORAD_CAT_ID":"50200","MEAN_ANOMALY":"331.7059","LAUNCH_DATE":"2021-12-18","RA_OF_ASC_NODE":"42.4116","SEMIMAJOR_AXIS":"6917.815","OBJECT_NAME":"STARLINK-3235","EPOCH":"2023-01-05T14:47:41.178048","MEAN_ELEMENT_THEORY":"SGP4","DECAY_DATE":null,"PERIOD":"95.436","PERIAPSIS":"537.778","ECCENTRICITY":"0.00027500","COUNTRY_CODE":"US","MEAN_MOTION":"15.08861241","APOAPSIS":"541.583","EPHEMERIS_TYPE":"0","OBJECT_TYPE":"PAYLOAD","GP_ID":"222289978","CENTER_NAME":"EARTH","REF_FRAME":"TEME","ELEMENT_SET_NO":"999","BSTAR":"0.00032892000000","CLASSIFICATION_TYPE":"U","RCS_SIZE":"LARGE"},{"OBJECT_ID":"2021-125AX","REV_AT_EPOCH":"6174","FILE":"3732939","ARG_OF_PERICENTER":"31.8555","TIME_SYSTEM":"UTC","TLE_LINE2":"2 50201  53.2160  42.7637 0002832  31.8555 328.2608 15.08862571 61748","INCLINATION":"53.2160","MEAN_MOTION_DDOT":"0.0000000000000","TLE_LINE1":"1 50201U 21125AX  23005.53916896  .00004937  00000-0  32785-3 0  9997","SITE":"AFWTR","MEAN_MOTION_DOT":"0.00004937","NORAD_CAT_ID":"50201","MEAN_ANOMALY":"328.2608","OBJECT_NAME":"STARLINK-3255","SEMIMAJOR_AXIS":"6917.811","LAUNCH_DATE":"2021-12-18","RA_OF_ASC_NODE":"42.7637","DECAY_DATE":null,"EPOCH":"2023-01-05T12:56:24.198144","MEAN_ELEMENT_THEORY":"SGP4","PERIAPSIS":"537.717","PERIOD":"95.436","ECCENTRICITY":"0.00028320","COUNTRY_CODE":"US","APOAPSIS":"541.636","MEAN_MOTION":"15.08862571","OBJECT_TYPE":"PAYLOAD","EPHEMERIS_TYPE":"0","GP_ID":"222263276","REF_FRAME":"TEME","CENTER_NAME":"EARTH","BSTAR":"0.00032785000000","ELEMENT_SET_NO":"999","CLASSIFICATION_TYPE":"U","RCS_SIZE":"LARGE"},{"NORAD_CAT_ID":"50202","MEAN_MOTION_DOT":"0.00005163","SITE":"AFWTR","MEAN_MOTION_DDOT":"0.0000000000000","TLE_LINE1":"1 50202U 21125AY  23005.38829182  .00005163  00000-0  34203-3 0  9991","DECAY_DATE":null,"EPOCH":"2023-01-05T09:19:08.413248","MEAN_ELEMENT_THEORY":"SGP4","OBJECT_NAME":"STARLINK-3256","LAUNCH_DATE":"2021-12-18","SEMIMAJOR_AXIS":"6917.816","RA_OF_ASC_NODE":"43.4210","MEAN_ANOMALY":"319.3262","FILE":"3732939","ARG_OF_PERICENTER":"40.7863","TIME_SYSTEM":"UTC","OBJECT_ID":"2021-125AY","REV_AT_EPOCH":"6171","TLE_LINE2":"2 50202  53.2178  43.4210 0001767  40.7863 319.3262 15.08861056 61711","INCLINATION":"53.2178","ELEMENT_SET_NO":"999","BSTAR":"0.00034203000000","REF_FRAME":"TEME","CENTER_NAME":"EARTH","GP_ID":"222263525","RCS_SIZE":"LARGE","CLASSIFICATION_TYPE":"U","ECCENTRICITY":"0.00017670","PERIAPSIS":"538.459","PERIOD":"95.436","OBJECT_TYPE":"PAYLOAD","EPHEMERIS_TYPE":"0","APOAPSIS":"540.903","MEAN_MOTION":"15.08861056","COUNTRY_CODE":"US"},{"ECCENTRICITY":"0.00021540","PERIOD":"95.438","PERIAPSIS":"538.280","EPHEMERIS_TYPE":"0","OBJECT_TYPE":"PAYLOAD","COUNTRY_CODE":"US","MEAN_MOTION":"15.08831975","APOAPSIS":"541.260","CENTER_NAME":"EARTH","REF_FRAME":"TEME","BSTAR":"0.00003564800000","ELEMENT_SET_NO":"999","GP_ID":"222264277","CLASSIFICATION_TYPE":"U","RCS_SIZE":"LARGE","REV_AT_EPOCH":"6179","OBJECT_ID":"2021-125AZ","TIME_SYSTEM":"UTC","ARG_OF_PERICENTER":"60.5183","FILE":"3732939","INCLINATION":"53.2145","TLE_LINE2":"2 50203  53.2145  43.0266 0002154  60.5183 299.6023 15.08831975 61799","MEAN_MOTION_DOT":"0.00000279","NORAD_CAT_ID":"50203","TLE_LINE1":"1 50203U 21125AZ  23005.48031268  .00000279  00000-0  35648-4 0  9991","MEAN_MOTION_DDOT":"0.0000000000000","SITE":"AFWTR","MEAN_ELEMENT_THEORY":"SGP4","EPOCH":"2023-01-05T11:31:39.015552","DECAY_DATE":null,"MEAN_ANOMALY":"299.6023","SEMIMAJOR_AXIS":"6917.905","LAUNCH_DATE":"2021-12-18","RA_OF_ASC_NODE":"43.0266","OBJECT_NAME":"STARLINK-3257"}];
